[{"OBJECT_NAME":"KUIPER-00085","OBJECT_ID":"2025-151R","EPOCH":"2026-03-26T08:27:07.114752","MEAN_MOTION":14.79943919,"ECCENTRICITY":6.24e-5,"INCLINATION":51.9012,"RA_OF_ASC_NODE":214.4513,"ARG_OF_PERICENTER":91.7297,"MEAN_ANOMALY":268.3737,"EPHEMERIS_TYPE":0,"CLASSIFICATION_TYPE":"U","NORAD_CAT_ID":64831,"ELEMENT_SET_NO":999,"REV_AT_EPOCH":3794,"BSTAR":0.00061089,"MEAN_MOTION_DOT":4.44e-5,"MEAN_MOTION_DDOT":0},{"OBJECT_NAME":"KUIPER-00086","OBJECT_ID":"2025-151S","EPOCH":"2026-03-26T09:48:49.282272","MEAN_MOTION":14.79941778,"ECCENTRICITY":5.6e-5,"INCLINATION":51.8995,"RA_OF_ASC_NODE":224.1678,"ARG_OF_PERICENTER":102.2586,"MEAN_ANOMALY":257.8439,"EPHEMERIS_TYPE":0,"CLASSIFICATION_TYPE":"U","NORAD_CAT_ID":64832,"ELEMENT_SET_NO":999,"REV_AT_EPOCH":3781,"BSTAR":0.00056713,"MEAN_MOTION_DOT":4.106e-5,"MEAN_MOTION_DDOT":0},{"OBJECT_NAME":"KUIPER-00087","OBJECT_ID":"2025-151T","EPOCH":"2026-03-26T08:38:40.829856","MEAN_MOTION":14.79940252,"ECCENTRICITY":4.97e-5,"INCLINATION":51.8995,"RA_OF_ASC_NODE":206.8604,"ARG_OF_PERICENTER":93.1288,"MEAN_ANOMALY":266.9731,"EPHEMERIS_TYPE":0,"CLASSIFICATION_TYPE":"U","NORAD_CAT_ID":64833,"ELEMENT_SET_NO":999,"REV_AT_EPOCH":3804,"BSTAR":0.00059384,"MEAN_MOTION_DOT":4.31e-5,"MEAN_MOTION_DDOT":0},{"OBJECT_NAME":"KUIPER-00089","OBJECT_ID":"2025-151U","EPOCH":"2026-03-26T02:02:02.072544","MEAN_MOTION":14.79926503,"ECCENTRICITY":5.148e-5,"INCLINATION":51.8998,"RA_OF_ASC_NODE":213.0916,"ARG_OF_PERICENTER":113.3174,"MEAN_ANOMALY":246.7843,"EPHEMERIS_TYPE":0,"CLASSIFICATION_TYPE":"U","NORAD_CAT_ID":64834,"ELEMENT_SET_NO":999,"REV_AT_EPOCH":3794,"BSTAR":0.00017451616,"MEAN_MOTION_DOT":1.109e-5,"MEAN_MOTION_DDOT":0},{"OBJECT_NAME":"KUIPER-00090","OBJECT_ID":"2025-151V","EPOCH":"2026-03-26T08:42:33.413472","MEAN_MOTION":14.79944817,"ECCENTRICITY":6.94e-5,"INCLINATION":51.8988,"RA_OF_ASC_NODE":204.3891,"ARG_OF_PERICENTER":102.8857,"MEAN_ANOMALY":257.2183,"EPHEMERIS_TYPE":0,"CLASSIFICATION_TYPE":"U","NORAD_CAT_ID":64835,"ELEMENT_SET_NO":999,"REV_AT_EPOCH":3808,"BSTAR":0.00051505,"MEAN_MOTION_DOT":3.708e-5,"MEAN_MOTION_DDOT":0},{"OBJECT_NAME":"KUIPER-00091","OBJECT_ID":"2025-151W","EPOCH":"2026-03-26T08:34:46.670304","MEAN_MOTION":14.7993175,"ECCENTRICITY":5.4e-5,"INCLINATION":51.8995,"RA_OF_ASC_NODE":209.3931,"ARG_OF_PERICENTER":119.4835,"MEAN_ANOMALY":240.6181,"EPHEMERIS_TYPE":0,"CLASSIFICATION_TYPE":"U","NORAD_CAT_ID":64836,"ELEMENT_SET_NO":999,"REV_AT_EPOCH":3801,"BSTAR":0.00048412,"MEAN_MOTION_DOT":3.471e-5,"MEAN_MOTION_DDOT":0},{"OBJECT_NAME":"KUIPER-00092","OBJECT_ID":"2025-151X","EPOCH":"2026-03-26T08:23:12.668352","MEAN_MOTION":14.79927228,"ECCENTRICITY":8.23e-5,"INCLINATION":51.9001,"RA_OF_ASC_NODE":216.9271,"ARG_OF_PERICENTER":104.3503,"MEAN_ANOMALY":255.7551,"EPHEMERIS_TYPE":0,"CLASSIFICATION_TYPE":"U","NORAD_CAT_ID":64837,"ELEMENT_SET_NO":999,"REV_AT_EPOCH":3912,"BSTAR":-0.0002982,"MEAN_MOTION_DOT":-2.493e-5,"MEAN_MOTION_DDOT":0},{"OBJECT_NAME":"KUIPER-00093","OBJECT_ID":"2025-151Y","EPOCH":"2026-03-26T08:19:24.060000","MEAN_MOTION":14.79899157,"ECCENTRICITY":5.92e-5,"INCLINATION":51.901,"RA_OF_ASC_NODE":219.4177,"ARG_OF_PERICENTER":152.093,"MEAN_ANOMALY":208.0065,"EPHEMERIS_TYPE":0,"CLASSIFICATION_TYPE":"U","NORAD_CAT_ID":64838,"ELEMENT_SET_NO":999,"REV_AT_EPOCH":3787,"BSTAR":0.0026183,"MEAN_MOTION_DOT":0.00019781,"MEAN_MOTION_DDOT":0},{"OBJECT_NAME":"KUIPER-00094","OBJECT_ID":"2025-151Z","EPOCH":"2026-03-26T06:04:06.890592","MEAN_MOTION":15.04572537,"ECCENTRICITY":0.0006267,"INCLINATION":51.8881,"RA_OF_ASC_NODE":186.2465,"ARG_OF_PERICENTER":351.2516,"MEAN_ANOMALY":8.8347,"EPHEMERIS_TYPE":0,"CLASSIFICATION_TYPE":"U","NORAD_CAT_ID":64839,"ELEMENT_SET_NO":999,"REV_AT_EPOCH":3833,"BSTAR":0.00053591,"MEAN_MOTION_DOT":7.336e-5,"MEAN_MOTION_DDOT":0},{"OBJECT_NAME":"KUIPER-00081","OBJECT_ID":"2025-171A","EPOCH":"2026-03-26T06:24:04.303872","MEAN_MOTION":14.79904525,"ECCENTRICITY":9.76e-5,"INCLINATION":51.9002,"RA_OF_ASC_NODE":74.7645,"ARG_OF_PERICENTER":95.3046,"MEAN_ANOMALY":264.8027,"EPHEMERIS_TYPE":0,"CLASSIFICATION_TYPE":"U","NORAD_CAT_ID":65132,"ELEMENT_SET_NO":999,"REV_AT_EPOCH":3549,"BSTAR":-0.00015033,"MEAN_MOTION_DOT":-1.366e-5,"MEAN_MOTION_DDOT":0},{"OBJECT_NAME":"KUIPER-00088","OBJECT_ID":"2025-171B","EPOCH":"2026-03-26T09:11:26.203488","MEAN_MOTION":14.79933931,"ECCENTRICITY":7.36e-5,"INCLINATION":51.9008,"RA_OF_ASC_NODE":91.7618,"ARG_OF_PERICENTER":80.6779,"MEAN_ANOMALY":279.4267,"EPHEMERIS_TYPE":0,"CLASSIFICATION_TYPE":"U","NORAD_CAT_ID":65133,"ELEMENT_SET_NO":999,"REV_AT_EPOCH":3526,"BSTAR":-3.3934e-6,"MEAN_MOTION_DOT":-2.47e-6,"MEAN_MOTION_DDOT":0},{"OBJECT_NAME":"KUIPER-00095","OBJECT_ID":"2025-171C","EPOCH":"2026-03-26T06:27:55.795392","MEAN_MOTION":14.79936644,"ECCENTRICITY":0.0001103,"INCLINATION":51.9024,"RA_OF_ASC_NODE":72.3255,"ARG_OF_PERICENTER":150.1575,"MEAN_ANOMALY":209.945,"EPHEMERIS_TYPE":0,"CLASSIFICATION_TYPE":"U","NORAD_CAT_ID":65134,"ELEMENT_SET_NO":999,"REV_AT_EPOCH":3552,"BSTAR":-0.00083741,"MEAN_MOTION_DOT":-6.599e-5,"MEAN_MOTION_DDOT":0},{"OBJECT_NAME":"KUIPER-00096","OBJECT_ID":"2025-171D","EPOCH":"2026-03-26T08:34:28.210080","MEAN_MOTION":14.79927886,"ECCENTRICITY":9.42e-5,"INCLINATION":51.9,"RA_OF_ASC_NODE":84.3764,"ARG_OF_PERICENTER":76.1117,"MEAN_ANOMALY":283.995,"EPHEMERIS_TYPE":0,"CLASSIFICATION_TYPE":"U","NORAD_CAT_ID":65135,"ELEMENT_SET_NO":999,"REV_AT_EPOCH":3536,"BSTAR":0.00025899,"MEAN_MOTION_DOT":1.753e-5,"MEAN_MOTION_DDOT":0},{"OBJECT_NAME":"KUIPER-00097","OBJECT_ID":"2025-171E","EPOCH":"2026-03-26T06:53:21.141600","MEAN_MOTION":14.79927236,"ECCENTRICITY":8.63e-5,"INCLINATION":51.8997,"RA_OF_ASC_NODE":87.3158,"ARG_OF_PERICENTER":78.5088,"MEAN_ANOMALY":281.5971,"EPHEMERIS_TYPE":0,"CLASSIFICATION_TYPE":"U","NORAD_CAT_ID":65136,"ELEMENT_SET_NO":999,"REV_AT_EPOCH":3530,"BSTAR":-7.9629e-5,"MEAN_MOTION_DOT":-8.28e-6,"MEAN_MOTION_DDOT":0},{"OBJECT_NAME":"KUIPER-00098","OBJECT_ID":"2025-171F","EPOCH":"2026-03-26T10:03:49.322304","MEAN_MOTION":14.79934991,"ECCENTRICITY":4.29e-5,"INCLINATION":51.9016,"RA_OF_ASC_NODE":89.1083,"ARG_OF_PERICENTER":21.347,"MEAN_ANOMALY":338.751,"EPHEMERIS_TYPE":0,"CLASSIFICATION_TYPE":"U","NORAD_CAT_ID":65137,"ELEMENT_SET_NO":999,"REV_AT_EPOCH":3464,"BSTAR":-0.00078199,"MEAN_MOTION_DOT":-6.177e-5,"MEAN_MOTION_DDOT":0},{"OBJECT_NAME":"KUIPER-00099","OBJECT_ID":"2025-171G","EPOCH":"2026-03-26T09:30:51.837120","MEAN_MOTION":14.80062144,"ECCENTRICITY":0.0001276,"INCLINATION":51.9024,"RA_OF_ASC_NODE":79.1981,"ARG_OF_PERICENTER":45.544,"MEAN_ANOMALY":314.5627,"EPHEMERIS_TYPE":0,"CLASSIFICATION_TYPE":"U","NORAD_CAT_ID":65138,"ELEMENT_SET_NO":999,"REV_AT_EPOCH":3543,"BSTAR":0.0004633,"MEAN_MOTION_DOT":3.323e-5,"MEAN_MOTION_DDOT":0},{"OBJECT_NAME":"KUIPER-00100","OBJECT_ID":"2025-171H","EPOCH":"2026-03-26T08:46:06.849984","MEAN_MOTION":14.79925075,"ECCENTRICITY":8.33e-5,"INCLINATION":51.8967,"RA_OF_ASC_NODE":76.8142,"ARG_OF_PERICENTER":75.155,"MEAN_ANOMALY":284.9505,"EPHEMERIS_TYPE":0,"CLASSIFICATION_TYPE":"U","NORAD_CAT_ID":65139,"ELEMENT_SET_NO":999,"REV_AT_EPOCH":3546,"BSTAR":-0.00013731,"MEAN_MOTION_DOT":-1.268e-5,"MEAN_MOTION_DDOT":0}]
