KUIPER-00085            
1 64831U 25151R   26085.35216568  .00004440  00000+0  61089-3 0  9991
2 64831  51.9012 214.4513 0000624  91.7297 268.3737 14.79943919 37944
KUIPER-00086            
1 64832U 25151S   26085.40890373  .00004106  00000+0  56713-3 0  9997
2 64832  51.8995 224.1678 0000560 102.2586 257.8439 14.79941778 37811
KUIPER-00087            
1 64833U 25151T   26085.36019479  .00004310  00000+0  59384-3 0  9997
2 64833  51.8995 206.8604 0000497  93.1288 266.9731 14.79940252 38042
KUIPER-00089            
1 64834U 25151U   26085.08474621  .00001109  00000+0  17452-3 0  9994
2 64834  51.8998 213.0916 0000514 113.3174 246.7843 14.79926503 37942
KUIPER-00090            
1 64835U 25151V   26085.36288673  .00003708  00000+0  51505-3 0  9990
2 64835  51.8988 204.3891 0000694 102.8857 257.2183 14.79944817 38085
KUIPER-00091            
1 64836U 25151W   26085.35748461  .00003471  00000+0  48412-3 0  9996
2 64836  51.8995 209.3931 0000540 119.4835 240.6181 14.79931750 38013
KUIPER-00092            
1 64837U 25151X   26085.34945218 -.00002493  00000+0 -29820-3 0  9992
2 64837  51.9001 216.9271 0000823 104.3503 255.7551 14.79927228 39129
KUIPER-00093            
1 64838U 25151Y   26085.34680625  .00019781  00000+0  26183-2 0  9995
2 64838  51.9010 219.4177 0000592 152.0930 208.0065 14.79899157 37870
KUIPER-00094            
1 64839U 25151Z   26085.25285753  .00007336  00000+0  53591-3 0  9996
2 64839  51.8881 186.2465 0006267 351.2516   8.8347 15.04572537 38335
KUIPER-00081            
1 65132U 25171A   26085.26671648 -.00001366  00000+0 -15033-3 0  9996
2 65132  51.9002  74.7645 0000976  95.3046 264.8027 14.79904525 35494
KUIPER-00088            
1 65133U 25171B   26085.38294217 -.00000247  00000+0 -33934-5 0  9992
2 65133  51.9008  91.7618 0000736  80.6779 279.4267 14.79933931 35260
KUIPER-00095            
1 65134U 25171C   26085.26939578 -.00006599  00000+0 -83741-3 0  9991
2 65134  51.9024  72.3255 0001103 150.1575 209.9450 14.79936644 35522
KUIPER-00096            
1 65135U 25171D   26085.35727095  .00001753  00000+0  25899-3 0  9996
2 65135  51.9000  84.3764 0000942  76.1117 283.9950 14.79927886 35361
KUIPER-00097            
1 65136U 25171E   26085.28705025 -.00000828  00000+0 -79629-4 0  9993
2 65136  51.8997  87.3158 0000863  78.5088 281.5971 14.79927236 35301
KUIPER-00098            
1 65137U 25171F   26085.41932086 -.00006177  00000+0 -78199-3 0  9991
2 65137  51.9016  89.1083 0000429  21.3470 338.7510 14.79934991 34647
KUIPER-00099            
1 65138U 25171G   26085.39643330  .00003323  00000+0  46330-3 0  9990
2 65138  51.9024  79.1981 0001276  45.5440 314.5627 14.80062144 35432
KUIPER-00100            
1 65139U 25171H   26085.36535706 -.00001268  00000+0 -13731-3 0  9992
2 65139  51.8967  76.8142 0000833  75.1550 284.9505 14.79925075 35467
